CHINASAT 6D             
1 52255U 22038A   22133.58575336 -.00000343  00000+0  00000+0 0  9996
2 52255   0.0300 282.0912 0001492 256.3301  28.8584  1.00269458   442
CZ-3B R/B               
1 52256U 22038B   22133.56282192  .00037602  16366-5  28241-2 0  9995
2 52256  28.5406   9.7394 7200115 196.6296 113.7909  2.41214464   686
DAQI 1                  
1 52257U 22039A   22134.14672524  .00000258  00000+0  66490-4 0  9993
2 52257  98.1357  75.4102 0001846 153.4225 206.7069 14.57676211  4134
CZ-4C R/B               
1 52258U 22039B   22133.39436595  .00001833  00000+0  16164-3 0  9998
2 52258  98.1663  76.2273 0138699 332.0681  27.3139 14.90747794  4116
SZ-13 MODULE            
1 52260U 21092C   22134.06415045  .00027170  00000+0  26058-3 0  9996
2 52260  41.4818  65.3243 0010862 242.5746 117.3990 15.65937581  4007
STARLINK-3810           
1 52261U 22041A   22133.91667824 -.00719837  00000+0 -68783-2 0  9999
2 52261  53.2170 264.8493 0001650  38.7098 188.6399 15.68232921  1306
STARLINK-3761           
1 52262U 22041B   22133.91667824 -.00719687  00000+0 -68793-2 0  9994
2 52262  53.2170 264.8467 0001682  38.1300 187.9224 15.68223665  1307
STARLINK-3786           
1 52263U 22041C   22133.91667824 -.00719771  00000+0 -68790-2 0  9996
2 52263  53.2170 264.8470 0001626  39.8882 186.8130 15.68228237  1307
STARLINK-3795           
1 52264U 22041D   22134.25001157 -.00715491  00000+0 -69778-2 0  9998
2 52264  53.2172 263.2098 0001540  36.4159 274.2377 15.67724894  4772
STARLINK-3740           
1 52265U 22041E   22133.91667824 -.00719726  00000+0 -68746-2 0  9999
2 52265  53.2170 264.8531 0001614  40.4054 188.2413 15.68242188  1304
STARLINK-3739           
1 52266U 22041F   22133.91667824 -.00719878  00000+0 -68747-2 0  9999
2 52266  53.2170 264.8546 0001676  38.0607 191.2344 15.68246897  1304
STARLINK-3748           
1 52267U 22041G   22133.91667824 -.00719767  00000+0 -68725-2 0  9993
2 52267  53.2170 264.8571 0001569  41.7177 188.2259 15.68251482  1304
STARLINK-3746           
1 52268U 22041H   22133.91667824 -.00719745  00000+0 -68681-2 0  9991
2 52268  53.2170 264.8627 0001664  38.6623 193.2261 15.68265410  1309
STARLINK-3791           
1 52269U 22041J   22133.91667824 -.00719774  00000+0 -68713-2 0  9990
2 52269  53.2170 264.8591 0001545  42.8585 187.7333 15.68256135  1304
STARLINK-3804           
1 52270U 22041K   22133.91667824 -.00719649  00000+0 -68672-2 0  9997
2 52270  53.2170 264.8626 0001542  43.7529 189.3341 15.68266048  1301
STARLINK-3788           
1 52271U 22041L   22133.91667824 -.00719706  00000+0 -68691-2 0  9993
2 52271  53.2170 264.8610 0001624  40.2445 190.9957 15.68260774  1306
STARLINK-3781           
1 52272U 22041M   22133.91667824 -.00719820  00000+0 -68661-2 0  9998
2 52272  53.2170 264.8632 0001654  38.5156 195.8678 15.68275307  1305
STARLINK-3782           
1 52273U 22041N   22134.25001157  .00226238  00000+0  15829-2 0  9990
2 52273  53.2149 263.1515 0001966  23.2491 327.1603 15.73057855  4788
STARLINK-3790           
1 52274U 22041P   22133.91667824 -.00719718  00000+0 -68613-2 0  9993
2 52274  53.2170 264.8634 0001605  40.3903 195.9377 15.68288898  1302
STARLINK-3784           
1 52275U 22041Q   22133.91667824 -.00719827  00000+0 -68676-2 0  9994
2 52275  53.2170 264.8624 0001601  40.2257 193.5096 15.68270674  1304
STARLINK-3778           
1 52276U 22041R   22133.91667824 -.00719853  00000+0 -68598-2 0  9997
2 52276  53.2170 264.8639 0001730  35.6895 201.9345 15.68298119  1305
STARLINK-3787           
1 52277U 22041S   22133.91667824 -.00719742  00000+0 -68641-2 0  9994
2 52277  53.2170 264.8629 0001619  39.9716 195.0601 15.68279776  1306
STARLINK-3780           
1 52278U 22041T   22133.91667824 -.00719482  00000+0 -68557-2 0  9992
2 52278  53.2170 264.8658 0001279  62.3635 175.9085 15.68302579  1302
STARLINK-3686           
1 52279U 22041U   22134.25001157 -.00715498  00000+0 -69644-2 0  9993
2 52279  53.2172 263.2260 0001576  34.6933 283.6968 15.67771674  4787
STARLINK-3764           
1 52280U 22041V   22133.91667824 -.00719941  00000+0 -68555-2 0  9993
2 52280  53.2170 264.8717 0001701  35.1043 205.1108 15.68316767  1308
STARLINK-3779           
1 52281U 22041W   22133.91667824 -.00719918  00000+0 -68619-2 0  9999
2 52281  53.2170 264.8646 0001662  37.7579 199.2180 15.68293658  1304
STARLINK-3783           
1 52282U 22041X   22134.25001157  .00079769  00000+0  56928-3 0  9991
2 52282  53.2141 263.1332 0001975  21.5103 337.2783 15.73121353  4784
STARLINK-3789           
1 52283U 22041Y   22133.91667824 -.00719747  00000+0 -68565-2 0  9991
2 52283  53.2170 264.8681 0001551  43.0333 195.8864 15.68307356  1302
STARLINK-3561           
1 52284U 22041Z   22134.25001157  .00115798  00000+0  81992-3 0  9995
2 52284  53.2139 263.1299 0002112  23.4033 336.5628 15.73148556  4786
STARLINK-3775           
1 52285U 22041AA  22133.91667824 -.00719701  00000+0 -68545-2 0  9991
2 52285  53.2171 264.8700 0001641  39.2785 200.2890 15.68312001  1308
STARLINK-3802           
1 52286U 22041AB  22133.91667824  .00007743  00000+0  59679-4 0  9996
2 52286  53.2140 264.7794 0002295  24.1508 248.1882 15.73145195  4735
STARLINK-3822           
1 52287U 22041AC  22133.91667824 -.00719690  00000+0 -68518-2 0  9990
2 52287  53.2171 264.8739 0001623  40.1694 200.6934 15.68321293  1308
STARLINK-3776           
1 52288U 22041AD  22134.25001157  .00114994  00000+0  81554-3 0  9990
2 52288  53.2144 263.1267 0002105  30.1654 331.6117 15.73114051  4789
STARLINK-3751           
1 52289U 22041AE  22133.91667824  .00025781  00000+0  18796-3 0  9995
2 52289  53.2142 264.7835 0002552  23.1383 247.3771 15.73146072  1305
STARLINK-3772           
1 52290U 22041AF  22134.25001157  .00108317  00000+0  76953-3 0  9992
2 52290  53.2138 263.1225 0002407  26.3650 337.2115 15.73098917  4778
STARLINK-3773           
1 52291U 22041AG  22134.25001157  .00117260  00000+0  83064-3 0  9991
2 52291  53.2145 263.1295 0001929  19.3693 341.1877 15.73132973  4782
STARLINK-3753           
1 52292U 22041AH  22133.91667824  .00025950  00000+0  18914-3 0  9999
2 52292  53.2141 264.7715 0002499  21.9474 253.9299 15.73148557  4730
STARLINK-3771           
1 52293U 22041AJ  22134.25001157  .00117402  00000+0  83310-3 0  9995
2 52293  53.2146 263.1261 0002166  25.1377 337.2548 15.73091073  4782
STARLINK-3777           
1 52294U 22041AK  22134.25001157  .00067825  00000+0  48510-3 0  9992
2 52294  53.2145 263.1193 0002189  26.9110 338.4421 15.73134911  4787
STARLINK-3765           
1 52295U 22041AL  22133.91667824 -.00046130  00000+0 -32645-3 0  9994
2 52295  53.2140 264.7758 0002556  17.9750 256.1251 15.73167190  4732
STARLINK-3766           
1 52296U 22041AM  22133.91667824  .00041063  00000+0  29614-3 0  9995
2 52296  53.2143 264.7675 0002321  18.5342 259.6827 15.73152508  4732
STARLINK-3758           
1 52297U 22041AN  22134.25001157  .00766609  00000+0  50851-2 0  9991
2 52297  53.2166 263.1238 0002722  30.8663 333.3373 15.72731181  4784
STARLINK-3760           
1 52298U 22041AP  22133.91667824 -.00038591  00000+0 -27223-3 0  9995
2 52298  53.2144 264.7657 0002390  18.0837 260.7761 15.73159001  4729
STARLINK-3759           
1 52299U 22041AQ  22134.25001157  .00175509  00000+0  12351-2 0  9999
2 52299  53.2149 263.1172 0002273  21.4435 345.0892 15.73082656  4781
STARLINK-3769           
1 52300U 22041AR  22134.25001157  .00107330  00000+0  76242-3 0  9999
2 52300  53.2149 263.1118 0002132  30.8574 338.0574 15.73106529  4781
STARLINK-3768           
1 52301U 22041AS  22134.25001157  .00088599  00000+0  63089-3 0  9990
2 52301  53.2146 263.1181 0002014  22.7923 343.1569 15.73130704  4778
STARLINK-3564           
1 52302U 22041AT  22134.25001157  .00092071  00000+0  65391-3 0  9999
2 52302  53.2146 263.1080 0002209  23.1610 347.5092 15.73175399  4779
STARLINK-3742           
1 52303U 22041AU  22133.91667824  .00013538  00000+0  10090-3 0  9998
2 52303  53.2142 264.7647 0002569  20.1273 259.2970 15.73156996  4735
STARLINK-3744           
1 52304U 22041AV  22134.25001157  .00115424  00000+0  81762-3 0  9999
2 52304  53.2147 263.1065 0002263  24.8678 346.4232 15.73139792  4789
STARLINK-3724           
1 52305U 22041AW  22134.25001157  .00115830  00000+0  82259-3 0  9993
2 52305  53.2149 263.1108 0002272  30.9210 338.6199 15.73078421  4786
STARLINK-3747           
1 52306U 22041AX  22134.25001157  .00109887  00000+0  78045-3 0  9997
2 52306  53.2144 263.1052 0002051  34.1570 337.7545 15.73100358  4780
STARLINK-3755           
1 52307U 22041AY  22134.25001157  .00994006  00000+0  65768-2 0  9990
2 52307  53.2166 263.1108 0002314  32.9783 337.3068 15.72563243  4771
STARLINK-3745           
1 52308U 22041AZ  22133.91667824  .00022892  00000+0  16742-3 0  9996
2 52308  53.2144 264.7541 0002230  17.6732 266.4933 15.73151248  4735
STARLINK-3756           
1 52309U 22041BA  22134.25001157  .00086110  00000+0  61343-3 0  9996
2 52309  53.2147 263.1049 0002245  16.8625 355.6514 15.73131959  4781
STARLINK-3688           
1 52310U 22041BB  22134.25001157  .00111550  00000+0  79112-3 0  9998
2 52310  53.2148 263.0999 0002189  23.3505 350.9601 15.73127251  4789
STARLINK-3750           
1 52311U 22041BC  22133.91667824 -.00056074  00000+0 -39759-3 0  9994
2 52311  53.2144 264.7533 0002378  20.3106 264.5068 15.73206506  1305
STARLINK-3752           
1 52312U 22041BD  22134.25001157  .00116005  00000+0  82121-3 0  9994
2 52312  53.2149 263.0983 0002006  18.0769 356.8050 15.73152989  4785
STARLINK-3749           
1 52313U 22041BE  22133.91667824  .00025764  00000+0  18783-3 0  9990
2 52313  53.2130 264.7493 0002265  30.1596 256.4331 15.73147581  4723
FALCON 9 DEB            
1 52314U 22041BF  22133.09204634  .00351774  61525-4  77411-3 0  9996
2 52314  53.2065 266.4515 0016418 344.7317  15.3216 15.97325183  3416
